[{"OBJECT_NAME":"SPIP","OBJECT_ID":"2023-174AU","EPOCH":"2026-03-09T22:52:46.383168","MEAN_MOTION":15.26695413,"ECCENTRICITY":0.00100427,"INCLINATION":97.3901,"RA_OF_ASC_NODE":146.4534,"ARG_OF_PERICENTER":168.1112,"MEAN_ANOMALY":192.0366,"EPHEMERIS_TYPE":0,"CLASSIFICATION_TYPE":"U","NORAD_CAT_ID":58298,"ELEMENT_SET_NO":999,"REV_AT_EPOCH":12963,"BSTAR":0.00025731582,"MEAN_MOTION_DOT":6.692e-5,"MEAN_MOTION_DDOT":0},{"OBJECT_NAME":"STARLINK-30935","OBJECT_ID":"2023-183U","EPOCH":"2026-03-09T22:00:01.999584","MEAN_MOTION":15.26713327,"ECCENTRICITY":0.00014788,"INCLINATION":43.0006,"RA_OF_ASC_NODE":40.315,"ARG_OF_PERICENTER":261.288,"MEAN_ANOMALY":298.475,"EPHEMERIS_TYPE":0,"CLASSIFICATION_TYPE":"U","NORAD_CAT_ID":58455,"ELEMENT_SET_NO":999,"REV_AT_EPOCH":578,"BSTAR":0.0016210219,"MEAN_MOTION_DOT":0.00043443,"MEAN_MOTION_DDOT":0}]
